[{"OBJECT_NAME":"BLACKJACK ACES-2","OBJECT_ID":"2023-084Z","EPOCH":"2026-03-09T22:41:57.112224","MEAN_MOTION":15.20437873,"ECCENTRICITY":5.883e-5,"INCLINATION":97.6035,"RA_OF_ASC_NODE":203.5392,"ARG_OF_PERICENTER":31.4555,"MEAN_ANOMALY":328.6715,"EPHEMERIS_TYPE":0,"CLASSIFICATION_TYPE":"U","NORAD_CAT_ID":56955,"ELEMENT_SET_NO":999,"REV_AT_EPOCH":15211,"BSTAR":0.00051478919,"MEAN_MOTION_DOT":0.00011167,"MEAN_MOTION_DDOT":0},{"OBJECT_NAME":"TRANSPORTER-15 OBJECT AB","OBJECT_ID":"2025-276AB","EPOCH":"2026-03-09T17:52:46.062048","MEAN_MOTION":15.19167026,"ECCENTRICITY":0.00043423,"INCLINATION":97.4278,"RA_OF_ASC_NODE":144.019,"ARG_OF_PERICENTER":4.0315,"MEAN_ANOMALY":356.0954,"EPHEMERIS_TYPE":0,"CLASSIFICATION_TYPE":"U","NORAD_CAT_ID":66691,"ELEMENT_SET_NO":999,"REV_AT_EPOCH":1532,"BSTAR":0.00051798273,"MEAN_MOTION_DOT":0.00010833,"MEAN_MOTION_DDOT":0}]
